COMMENT,ORIGINATOR,NORAD_CAT_ID,OBJECT_NAME,OBJECT_TYPE,CLASSIFICATION_TYPE,INTLDES,EPOCH,EPOCH_MICROSECONDS,MEAN_MOTION,ECCENTRICITY,INCLINATION,RA_OF_ASC_NODE,ARG_OF_PERICENTER,MEAN_ANOMALY,EPHEMERIS_TYPE,ELEMENT_SET_NO,REV_AT_EPOCH,BSTAR,MEAN_MOTION_DOT,MEAN_MOTION_DDOT,FILE,TLE_LINE0,TLE_LINE1,TLE_LINE2,OBJECT_ID,OBJECT_NUMBER,SEMIMAJOR_AXIS,PERIOD,APOGEE,PERIGEE,DECAYED,date
GENERATED VIA SPACETRACK.ORG API,18 SPCS,48899,SPACEBEE-110,PAYLOAD,U,21059W,2023/2/7 3:50,712416,15.23024939,0.0008682,97.5802,173.4631,4.6861,355.4455,0,999,8957,0.001445,0.00034092,0,3776538,0 SPACEBEE-110,1 48899U 21059W   23038.16039019  .00034092  00000-0  14450-2 0  9994,2 48899  97.5802 173.4631 0008682   4.6861 355.4455 15.23024939 89573,2021-059W,48899,6874.86,94.549,502.693,490.756,0,2023/3/11
GENERATED VIA SPACETRACK.ORG API,18 SPCS,48899,SPACEBEE-110,PAYLOAD,U,21059W,2023/2/7 8:34,260416,15.23037616,0.0008691,97.5801,173.6622,4.0522,356.0783,0,999,8960,0.0014002,0.0003304,0,3777208,0 SPACEBEE-110,1 48899U 21059W   23038.35749144  .00033040  00000-0  14002-2 0  9997,2 48899  97.5801 173.6622 0008691   4.0522 356.0783 15.23037616 89603,2021-059W,48899,6874.821,94.548,502.661,490.712,0,2023/3/12
GENERATED VIA SPACETRACK.ORG API,18 SPCS,48899,SPACEBEE-110,PAYLOAD,U,21059W,2023/2/7 21:11,615712,15.23072289,0.0008627,97.5802,174.1925,1.9801,358.1468,0,999,8968,0.0013097,0.00030922,0,3777976,0 SPACEBEE-110,1 48899U 21059W   23038.88308583  .00030922  00000-0  13097-2 0  9992,2 48899  97.5802 174.1925 0008627   1.9801 358.1468 15.23072289 89687,2021-059W,48899,6874.717,94.546,502.513,490.651,0,2023/3/13
GENERATED VIA SPACETRACK.ORG API,18 SPCS,48899,SPACEBEE-110,PAYLOAD,U,21059W,2023/2/8 6:39,338816,15.23103537,0.0008676,97.5802,174.5905,0.4009,359.7232,0,999,8974,0.0014675,0.00034707,0,3778487,0 SPACEBEE-110,1 48899U 21059W   23039.27727244  .00034707  00000-0  14675-2 0  9993,2 48899  97.5802 174.5905 0008676   0.4009 359.7232 15.23103537 89741,2021-059W,48899,6874.623,94.544,502.452,490.524,0,2023/3/14
GENERATED VIA SPACETRACK.ORG API,18 SPCS,48899,SPACEBEE-110,PAYLOAD,U,21059W,2023/2/8 8:13,586400,15.23108028,0.0008657,97.5801,174.6567,0.1959,359.9279,0,999,8975,0.0014649,0.0003465,0,3780324,0 SPACEBEE-110,1 48899U 21059W   23039.34296975  .00034650  00000-0  14649-2 0  9991,2 48899  97.5801 174.6567 0008657   0.1959 359.9279 15.23108028 89759,2021-059W,48899,6874.61,94.544,502.426,490.523,0,2023/3/15
GENERATED VIA SPACETRACK.ORG API,18 SPCS,48899,SPACEBEE-110,PAYLOAD,U,21059W,2023/2/8 14:32,322720,15.23129083,0.0008642,97.5801,174.922,359.1872,0.9349,0,999,8979,0.0015896,0.00037644,0,3780893,0 SPACEBEE-110,1 48899U 21059W   23039.60575605  .00037644  00000-0  15896-2 0  9991,2 48899  97.5801 174.9220 0008642 359.1872   0.9349 15.23129083 89792,2021-059W,48899,6874.546,94.542,502.352,490.47,0,2023/3/16
GENERATED VIA SPACETRACK.ORG API,18 SPCS,48899,SPACEBEE-110,PAYLOAD,U,21059W,2023/2/8 14:32,322720,15.23129083,0.0008642,97.5801,174.922,359.1872,0.9349,0,999,8979,0.0015896,0.00037644,0,3782956,0 SPACEBEE-110,1 48899U 21059W   23039.60575605  .00037644  00000-0  15896-2 0  9991,2 48899  97.5801 174.9220 0008642 359.1872   0.9349 15.23129083 89792,2021-059W,48899,6874.546,94.542,502.352,490.47,0,2023/3/17
GENERATED VIA SPACETRACK.ORG API,18 SPCS,48899,SPACEBEE-110,PAYLOAD,U,21059W,2023/2/9 20:29,660512,15.23227593,0.0008694,97.58,176.1821,354.162,5.9513,0,999,8998,0.0016543,0.00039302,0,3783241,0 SPACEBEE-110,1 48899U 21059W   23040.85394283  .00039302  00000-0  16543-2 0  9994,2 48899  97.5800 176.1821 0008694 354.1620   5.9513 15.23227593 89989,2021-059W,48899,6874.25,94.536,502.091,490.138,0,2023/3/18
GENERATED VIA SPACETRACK.ORG API,18 SPCS,48899,SPACEBEE-110,PAYLOAD,U,21059W,2023/2/9 20:29,660512,15.23227593,0.0008694,97.58,176.1821,354.162,5.9513,0,999,8998,0.0016543,0.00039302,0,3783454,0 SPACEBEE-110,1 48899U 21059W   23040.85394283  .00039302  00000-0  16543-2 0  9994,2 48899  97.5800 176.1821 0008694 354.1620   5.9513 15.23227593 89989,2021-059W,48899,6874.25,94.536,502.091,490.138,0,2023/3/19
GENERATED VIA SPACETRACK.ORG API,18 SPCS,48899,SPACEBEE-110,PAYLOAD,U,21059W,2023/2/10 2:48,610080,15.2324862,0.0008683,97.5796,176.4474,353.0162,7.0952,0,999,9002,0.0017228,0.00040967,0,3784184,0 SPACEBEE-110,1 48899U 21059W   23041.11670845  .00040967  00000-0  17228-2 0  9995,2 48899  97.5796 176.4474 0008683 353.0162   7.0952 15.23248620 90028,2021-059W,48899,6874.187,94.535,502.02,490.083,0,2023/3/20
GENERATED VIA SPACETRACK.ORG API,18 SPCS,48899,SPACEBEE-110,PAYLOAD,U,21059W,2023/2/10 15:24,556224,15.23293712,0.0008675,97.5799,176.978,351.5787,8.5302,0,999,9010,0.0017859,0.00042536,0,3785071,0 SPACEBEE-110,1 48899U 21059W   23041.64222866  .00042536  00000-0  17859-2 0  9993,2 48899  97.5799 176.9780 0008675 351.5787   8.5302 15.23293712 90109,2021-059W,48899,6874.051,94.532,501.879,489.953,0,2023/3/21
GENERATED VIA SPACETRACK.ORG API,18 SPCS,48899,SPACEBEE-110,PAYLOAD,U,21059W,2023/2/11 4:01,106144,15.23342577,0.0008664,97.5801,177.509,350.1308,9.9757,0,999,9018,0.0019595,0.00046772,0,3785389,0 SPACEBEE-110,1 48899U 21059W   23042.16773271  .00046772  00000-0  19595-2 0  9997,2 48899  97.5801 177.5090 0008664 350.1308   9.9757 15.23342577 90187,2021-059W,48899,6873.904,94.529,501.724,489.813,0,2023/3/22
GENERATED VIA SPACETRACK.ORG API,18 SPCS,48899,SPACEBEE-110,PAYLOAD,U,21059W,2023/2/11 4:01,106144,15.23342577,0.0008664,97.5801,177.509,350.1308,9.9757,0,999,9018,0.0019595,0.00046772,0,3786144,0 SPACEBEE-110,1 48899U 21059W   23042.16773271  .00046772  00000-0  19595-2 0  9997,2 48899  97.5801 177.5090 0008664 350.1308   9.9757 15.23342577 90187,2021-059W,48899,6873.904,94.529,501.724,489.813,0,2023/3/23
GENERATED VIA SPACETRACK.ORG API,18 SPCS,48899,SPACEBEE-110,PAYLOAD,U,21059W,2023/2/11 8:45,83232,15.23358373,0.0008656,97.5801,177.708,349.5247,10.5808,0,999,9021,0.0018161,0.00043344,0,3786577,0 SPACEBEE-110,1 48899U 21059W   23042.36479263  .00043344  00000-0  18161-2 0  9993,2 48899  97.5801 177.7080 0008656 349.5247  10.5808 15.23358373 90213,2021-059W,48899,6873.856,94.528,501.671,489.771,0,2023/3/24
GENERATED VIA SPACETRACK.ORG API,18 SPCS,48899,SPACEBEE-110,PAYLOAD,U,21059W,2023/2/11 8:45,83232,15.23358373,0.0008656,97.5801,177.708,349.5247,10.5808,0,999,9021,0.0018161,0.00043344,0,3787655,0 SPACEBEE-110,1 48899U 21059W   23042.36479263  .00043344  00000-0  18161-2 0  9993,2 48899  97.5801 177.7080 0008656 349.5247  10.5808 15.23358373 90213,2021-059W,48899,6873.856,94.528,501.671,489.771,0,2023/3/25
GENERATED VIA SPACETRACK.ORG API,18 SPCS,48899,SPACEBEE-110,PAYLOAD,U,21059W,2023/2/12 14:42,882336,15.23464401,0.0008675,97.5796,178.9684,344.8413,15.2562,0,999,9040,0.0017924,0.00042909,0,3788073,0 SPACEBEE-110,1 48899U 21059W   23043.61278799  .00042909  00000-0  17924-2 0  9995,2 48899  97.5796 178.9684 0008675 344.8413  15.2562 15.23464401 90403,2021-059W,48899,6873.537,94.521,501.365,489.44,0,2023/3/26
GENERATED VIA SPACETRACK.ORG API,18 SPCS,48899,SPACEBEE-110,PAYLOAD,U,21059W,2023/2/13 8:02,626080,15.23521546,0.0008733,97.5795,179.6981,341.8075,18.2848,0,999,9051,0.0016923,0.00040565,0,3789366,0 SPACEBEE-110,1 48899U 21059W   23044.33527345  .00040565  00000-0  16923-2 0  9993,2 48899  97.5795 179.6981 0008733 341.8075  18.2848 15.23521546 90512,2021-059W,48899,6873.366,94.518,501.233,489.228,0,2023/3/27
GENERATED VIA SPACETRACK.ORG API,18 SPCS,48899,SPACEBEE-110,PAYLOAD,U,21059W,2023/2/14 2:57,530688,15.23582888,0.0008827,97.5795,180.4945,339.2013,20.8863,0,999,9063,0.0016931,0.0004066,0,3790547,0 SPACEBEE-110,1 48899U 21059W   23045.12340892  .00040660  00000-0  16931-2 0  9996,2 48899  97.5795 180.4945 0008827 339.2013  20.8863 15.23582888 90634,2021-059W,48899,6873.181,94.514,501.113,488.979,0,2023/3/28
GENERATED VIA SPACETRACK.ORG API,18 SPCS,48899,SPACEBEE-110,PAYLOAD,U,21059W,2023/2/14 2:57,530688,15.23582888,0.0008827,97.5795,180.4945,339.2013,20.8863,0,999,9063,0.0016931,0.0004066,0,3791349,0 SPACEBEE-110,1 48899U 21059W   23045.12340892  .00040660  00000-0  16931-2 0  9996,2 48899  97.5795 180.4945 0008827 339.2013  20.8863 15.23582888 90634,2021-059W,48899,6873.181,94.514,501.113,488.979,0,2023/3/29
GENERATED VIA SPACETRACK.ORG API,18 SPCS,48899,SPACEBEE-110,PAYLOAD,U,21059W,2023/2/14 15:34,609952,15.23623847,0.0008831,97.5797,181.0254,337.346,22.7386,0,999,9071,0.0016724,0.00040208,0,3792084,0 SPACEBEE-110,1 48899U 21059W   23045.64881493  .00040208  00000-0  16724-2 0  9998,2 48899  97.5797 181.0254 0008831 337.3460  22.7386 15.23623847 90717,2021-059W,48899,6873.058,94.512,500.992,488.853,0,2023/3/30
GENERATED VIA SPACETRACK.ORG API,18 SPCS,48899,SPACEBEE-110,PAYLOAD,U,21059W,2023/2/15 8:54,867648,15.23680756,0.0008816,97.5795,181.7556,335.2932,24.7882,0,999,9082,0.0016715,0.00040254,0,3793131,0 SPACEBEE-110,1 48899U 21059W   23046.37122532  .00040254  00000-0  16715-2 0  9992,2 48899  97.5795 181.7556 0008816 335.2932  24.7882 15.23680756 90828,2021-059W,48899,6872.887,94.508,500.811,488.693,0,2023/3/31
GENERATED VIA SPACETRACK.ORG API,18 SPCS,48899,SPACEBEE-110,PAYLOAD,U,21059W,2023/2/15 8:54,867648,15.23680756,0.0008816,97.5795,181.7556,335.2932,24.7882,0,999,9082,0.0016715,0.00040254,0,3793706,0 SPACEBEE-110,1 48899U 21059W   23046.37122532  .00040254  00000-0  16715-2 0  9992,2 48899  97.5795 181.7556 0008816 335.2932  24.7882 15.23680756 90828,2021-059W,48899,6872.887,94.508,500.811,488.693,0,2023/4/1
GENERATED VIA SPACETRACK.ORG API,18 SPCS,48899,SPACEBEE-110,PAYLOAD,U,21059W,2023/2/15 21:31,855520,15.2373289,0.0008751,97.5797,182.2862,333.1837,26.8946,0,999,9090,0.0019995,0.00048293,0,3795153,0 SPACEBEE-110,1 48899U 21059W   23046.89659555  .00048293  00000-0  19995-2 0  9993,2 48899  97.5797 182.2862 0008751 333.1837  26.8946 15.23732890 90905,2021-059W,48899,6872.73,94.505,500.609,488.581,0,2023/4/2
